[{"OBJECT_NAME":"YAOGAN-30 06B","OBJECT_ID":"2019-045B","EPOCH":"2026-03-09T20:57:59.211936","MEAN_MOTION":15.02091105,"ECCENTRICITY":0.00094792,"INCLINATION":34.9914,"RA_OF_ASC_NODE":214.7206,"ARG_OF_PERICENTER":283.6936,"MEAN_ANOMALY":76.2717,"EPHEMERIS_TYPE":0,"CLASSIFICATION_TYPE":"U","NORAD_CAT_ID":44450,"ELEMENT_SET_NO":999,"REV_AT_EPOCH":36171,"BSTAR":0.00031633807,"MEAN_MOTION_DOT":4.217e-5,"MEAN_MOTION_DDOT":0},{"OBJECT_NAME":"STARLINK-4570","OBJECT_ID":"2022-105AU","EPOCH":"2026-03-09T16:11:26.072448","MEAN_MOTION":15.01260045,"ECCENTRICITY":0.00034422,"INCLINATION":97.6023,"RA_OF_ASC_NODE":310.1465,"ARG_OF_PERICENTER":48.0412,"MEAN_ANOMALY":312.1105,"EPHEMERIS_TYPE":0,"CLASSIFICATION_TYPE":"U","NORAD_CAT_ID":53690,"ELEMENT_SET_NO":999,"REV_AT_EPOCH":19323,"BSTAR":2.549325e-6,"MEAN_MOTION_DOT":-2.6e-7,"MEAN_MOTION_DDOT":0}]
